{
  "type": "FeatureCollection",
  "features": [
    {
      "type": "Feature",
      "properties": {
        "norad_id": 37486,
        "name": "COSMOS 2251 DEB",
        "group": "cosmos-2251-debris",
        "lat": 36.37246963760171,
        "lon": 121.76816576692866,
        "alt_km": 762.3442749885699,
        "timestamp": "2025-12-15T15:53:20.245717+00:00",
        "meta_object_name": "COSMOS 2251 DEB",
        "meta_object_id": "1993-036BLP",
        "meta_epoch": "2025-12-14T03:11:41.576640",
        "meta_mean_motion": 14.13339402,
        "meta_eccentricity": 0.02296507,
        "meta_inclination": 73.6911,
        "meta_ra_of_asc_node": 112.0787,
        "meta_arg_of_pericenter": 339.9478,
        "meta_mean_anomaly": 199.776,
        "meta_ephemeris_type": 0,
        "meta_classification_type": "U",
        "meta_norad_cat_id": 37486,
        "meta_element_set_no": 999,
        "meta_rev_at_epoch": 63389,
        "meta_bstar": 0.002290525,
        "meta_mean_motion_dot": 5.503e-05,
        "meta_mean_motion_ddot": 0,
        "tle_line1": "1 37486U 93036BLP 25348.13312010  .00005503  00000+0  22905-2 0  9994",
        "tle_line2": "2 37486  73.6911 112.0787 0229650 339.9478 199.7760 14.13339402633898"
      },
      "geometry": {
        "type": "Point",
        "coordinates": [
          121.76816576692866,
          36.37246963760171
        ]
      }
    },
    {
      "type": "Feature",
      "properties": {
        "norad_id": 37487,
        "name": "COSMOS 2251 DEB",
        "group": "cosmos-2251-debris",
        "lat": 55.04550283980841,
        "lon": -18.123176661574487,
        "alt_km": 622.2975794747717,
        "timestamp": "2025-12-15T15:53:20.245726+00:00",
        "meta_object_name": "COSMOS 2251 DEB",
        "meta_object_id": "1993-036BLQ",
        "meta_epoch": "2025-12-12T06:17:24.389376",
        "meta_mean_motion": 14.80982589,
        "meta_eccentricity": 0.00255931,
        "meta_inclination": 73.9026,
        "meta_ra_of_asc_node": 193.0379,
        "meta_arg_of_pericenter": 31.2136,
        "meta_mean_anomaly": 329.0553,
        "meta_ephemeris_type": 0,
        "meta_classification_type": "U",
        "meta_norad_cat_id": 37487,
        "meta_element_set_no": 999,
        "meta_rev_at_epoch": 81238,
        "meta_bstar": 0.0042593386,
        "meta_mean_motion_dot": 0.00033302,
        "meta_mean_motion_ddot": 0,
        "tle_line1": "1 37487U 93036BLQ 25346.26208784  .00033302  00000+0  42593-2 0  9992",
        "tle_line2": "2 37487  73.9026 193.0379 0025593  31.2136 329.0553 14.80982589812383"
      },
      "geometry": {
        "type": "Point",
        "coordinates": [
          -18.123176661574487,
          55.04550283980841
        ]
      }
    },
    {
      "type": "Feature",
      "properties": {
        "norad_id": 37491,
        "name": "COSMOS 2251 DEB",
        "group": "cosmos-2251-debris",
        "lat": -24.876403851425938,
        "lon": 96.8863773434142,
        "alt_km": 849.790971533891,
        "timestamp": "2025-12-15T15:53:20.245735+00:00",
        "meta_object_name": "COSMOS 2251 DEB",
        "meta_object_id": "1993-036BLU",
        "meta_epoch": "2025-12-14T02:11:55.979232",
        "meta_mean_motion": 13.75296851,
        "meta_eccentricity": 0.03172273,
        "meta_inclination": 73.9058,
        "meta_ra_of_asc_node": 271.825,
        "meta_arg_of_pericenter": 264.6635,
        "meta_mean_anomaly": 91.8222,
        "meta_ephemeris_type": 0,
        "meta_classification_type": "U",
        "meta_norad_cat_id": 37491,
        "meta_element_set_no": 999,
        "meta_rev_at_epoch": 55765,
        "meta_bstar": 0.0013651855,
        "meta_mean_motion_dot": 1.865e-05,
        "meta_mean_motion_ddot": 0,
        "tle_line1": "1 37491U 93036BLU 25348.09162013  .00001865  00000+0  13652-2 0  9997",
        "tle_line2": "2 37491  73.9058 271.8250 0317227 264.6635  91.8222 13.75296851557656"
      },
      "geometry": {
        "type": "Point",
        "coordinates": [
          96.8863773434142,
          -24.876403851425938
        ]
      }
    },
    {
      "type": "Feature",
      "properties": {
        "norad_id": 37498,
        "name": "COSMOS 2251 DEB",
        "group": "cosmos-2251-debris",
        "lat": 10.872061078483801,
        "lon": -178.49327186354992,
        "alt_km": 716.6603923256207,
        "timestamp": "2025-12-15T15:53:20.245744+00:00",
        "meta_object_name": "COSMOS 2251 DEB",
        "meta_object_id": "1993-036BMB",
        "meta_epoch": "2025-12-14T06:49:44.179968",
        "meta_mean_motion": 14.54780296,
        "meta_eccentricity": 0.00119843,
        "meta_inclination": 74.0356,
        "meta_ra_of_asc_node": 180.9606,
        "meta_arg_of_pericenter": 244.0042,
        "meta_mean_anomaly": 115.9887,
        "meta_ephemeris_type": 0,
        "meta_classification_type": "U",
        "meta_norad_cat_id": 37498,
        "meta_element_set_no": 999,
        "meta_rev_at_epoch": 65377,
        "meta_bstar": 0.00071543258,
        "meta_mean_motion_dot": 3.042e-05,
        "meta_mean_motion_ddot": 0,
        "tle_line1": "1 37498U 93036BMB 25348.28453912  .00003042  00000+0  71543-3 0  9999",
        "tle_line2": "2 37498  74.0356 180.9606 0011984 244.0042 115.9887 14.54780296653770"
      },
      "geometry": {
        "type": "Point",
        "coordinates": [
          -178.49327186354992,
          10.872061078483801
        ]
      }
    },
    {
      "type": "Feature",
      "properties": {
        "norad_id": 37499,
        "name": "COSMOS 2251 DEB",
        "group": "cosmos-2251-debris",
        "lat": 8.355606398037352,
        "lon": -40.74980013389914,
        "alt_km": 760.9438713242944,
        "timestamp": "2025-12-15T15:53:20.245754+00:00",
        "meta_object_name": "COSMOS 2251 DEB",
        "meta_object_id": "1993-036BMC",
        "meta_epoch": "2025-12-14T04:41:48.099840",
        "meta_mean_motion": 14.3434392,
        "meta_eccentricity": 0.00269884,
        "meta_inclination": 74.0378,
        "meta_ra_of_asc_node": 319.5242,
        "meta_arg_of_pericenter": 35.0872,
        "meta_mean_anomaly": 325.2051,
        "meta_ephemeris_type": 0,
        "meta_classification_type": "U",
        "meta_norad_cat_id": 37499,
        "meta_element_set_no": 999,
        "meta_rev_at_epoch": 85170,
        "meta_bstar": 0.00022678188,
        "meta_mean_motion_dot": 6.14e-06,
        "meta_mean_motion_ddot": 0,
        "tle_line1": "1 37499U 93036BMC 25348.19569560  .00000614  00000+0  22678-3 0  9994",
        "tle_line2": "2 37499  74.0378 319.5242 0026988  35.0872 325.2051 14.34343920851709"
      },
      "geometry": {
        "type": "Point",
        "coordinates": [
          -40.74980013389914,
          8.355606398037352
        ]
      }
    },
    {
      "type": "Feature",
      "properties": {
        "norad_id": 37528,
        "name": "COSMOS 2251 DEB",
        "group": "cosmos-2251-debris",
        "lat": -24.219141161184417,
        "lon": 109.24757980548681,
        "alt_km": 724.0509644372823,
        "timestamp": "2025-12-15T15:53:20.245763+00:00",
        "meta_object_name": "COSMOS 2251 DEB",
        "meta_object_id": "1993-036BNH",
        "meta_epoch": "2025-12-14T01:56:04.259040",
        "meta_mean_motion": 14.50527257,
        "meta_eccentricity": 0.00211598,
        "meta_inclination": 74.0363,
        "meta_ra_of_asc_node": 119.6164,
        "meta_arg_of_pericenter": 267.6458,
        "meta_mean_anomaly": 92.228,
        "meta_ephemeris_type": 0,
        "meta_classification_type": "U",
        "meta_norad_cat_id": 37528,
        "meta_element_set_no": 999,
        "meta_rev_at_epoch": 85950,
        "meta_bstar": 0.00062344957,
        "meta_mean_motion_dot": 2.421e-05,
        "meta_mean_motion_ddot": 0,
        "tle_line1": "1 37528U 93036BNH 25348.08060485  .00002421  00000+0  62345-3 0  9990",
        "tle_line2": "2 37528  74.0363 119.6164 0021159 267.6458  92.2280 14.50527257859502"
      },
      "geometry": {
        "type": "Point",
        "coordinates": [
          109.24757980548681,
          -24.219141161184417
        ]
      }
    },
    {
      "type": "Feature",
      "properties": {
        "norad_id": 37530,
        "name": "COSMOS 2251 DEB",
        "group": "cosmos-2251-debris",
        "lat": 68.41054728391134,
        "lon": 14.627811782243477,
        "alt_km": 756.8213961476649,
        "timestamp": "2025-12-15T15:53:20.245773+00:00",
        "meta_object_name": "COSMOS 2251 DEB",
        "meta_object_id": "1993-036BNK",
        "meta_epoch": "2025-12-13T05:02:01.167072",
        "meta_mean_motion": 14.34504437,
        "meta_eccentricity": 0.00258213,
        "meta_inclination": 74.0355,
        "meta_ra_of_asc_node": 332.7814,
        "meta_arg_of_pericenter": 34.4483,
        "meta_mean_anomaly": 341.4849,
        "meta_ephemeris_type": 0,
        "meta_classification_type": "U",
        "meta_norad_cat_id": 37530,
        "meta_element_set_no": 999,
        "meta_rev_at_epoch": 85239,
        "meta_bstar": 0.00034742606,
        "meta_mean_motion_dot": 9.57e-06,
        "meta_mean_motion_ddot": 0,
        "tle_line1": "1 37530U 93036BNK 25347.20973573  .00000957  00000+0  34743-3 0  9990",
        "tle_line2": "2 37530  74.0355 332.7814 0025821  34.4483 341.4849 14.34504437852391"
      },
      "geometry": {
        "type": "Point",
        "coordinates": [
          14.627811782243477,
          68.41054728391134
        ]
      }
    }
  ]
}